NORAD_CAT_ID,OBJECT_NAME,OBJECT_TYPE,EPOCH,MEAN_MOTION,ECCENTRICITY,INCLINATION,RA_OF_ASC_NODE,ARG_OF_PERICENTER,MEAN_ANOMALY,BSTAR,MEAN_MOTION_DOT,MEAN_MOTION_DDOT,TLE_LINE0,TLE_LINE1,TLE_LINE2,SEMIMAJOR_AXIS,PERIOD,APOGEE,PERIGEE,DECAYED
49413.0,STARLINK-3157,PAYLOAD,2024-01-06 18:00:19,15.08849245,0.0001235,53.2147,178.7719,80.4868,279.6263,3.012e-05,1.92e-06,0.0,0 STARLINK-3157,1 49413U 21104F   24006.75022818  .00000192  00000-0  30120-4 0  9996,2 49413  53.2147 178.7719 0001235  80.4868 279.6263 15.08849245120150,6917.852,95.437,540.571,538.863,0.0
49413.0,STARLINK-3157,PAYLOAD,2024-01-07 14:40:20,15.08854897,0.0001334,53.2157,174.904,88.1805,271.934,-0.00022405,-3.853e-05,0.0,0 STARLINK-3157,1 49413U 21104F   24007.61134760 -.00003853  00000-0 -22405-3 0  9997,2 49413  53.2157 174.9040 0001334  88.1805 271.9340 15.08854897119194,6917.835,95.437,540.623,538.777,0.0
49413.0,STARLINK-3157,PAYLOAD,2024-01-07 21:01:52,15.0885411,0.0001235,53.2159,173.7163,104.0718,256.0411,-0.00019661,-3.417e-05,0.0,0 STARLINK-3157,1 49413U 21104F   24007.87630388 -.00003417  00000-0 -19661-3 0  9998,2 49413  53.2159 173.7163 0001235 104.0718 256.0411 15.08854110119236,6917.837,95.437,540.557,538.848,0.0
49413.0,STARLINK-3157,PAYLOAD,2024-01-08 11:20:21,15.08835646,0.0001388,53.2156,171.0402,94.0954,266.0196,8.396e-05,1.048e-05,0.0,0 STARLINK-3157,1 49413U 21104F   24008.47246695  .00001048  00000-0  83960-4 0  9999,2 49413  53.2156 171.0402 0001388  94.0954 266.0196 15.08835646120415,6917.894,95.438,540.719,538.798,0.0
49413.0,STARLINK-3157,PAYLOAD,2024-01-08 14:31:07,15.08837584,0.0001388,53.2157,170.4453,97.1928,262.9222,9.7229e-05,1.26e-05,0.0,0 STARLINK-3157,1 49413U 21104F   24008.60494576  .00001260  00000-0  97229-4 0  9996,2 49413  53.2157 170.4453 0001388  97.1928 262.9222 15.08837584119348,6917.888,95.438,540.713,538.793,0.0
49413.0,STARLINK-3157,PAYLOAD,2024-01-08 17:41:53,15.08838916,0.0001358,53.2157,169.8508,91.5469,268.5679,0.00010385,1.365e-05,0.0,0 STARLINK-3157,1 49413U 21104F   24008.73742538  .00001365  00000-0  10385-3 0  9997,2 49413  53.2157 169.8508 0001358  91.5469 268.5679 15.08838916119366,6917.884,95.438,540.688,538.809,0.0
49413.0,STARLINK-3157,PAYLOAD,2024-01-09 14:21:54,15.08838571,0.0001334,53.2159,165.985,92.4551,267.6594,8.0402e-05,9.92e-06,0.0,0 STARLINK-3157,1 49413U 21104F   24009.59854831  .00000992  00000-0  80402-4 0  9995,2 49413  53.2159 165.9850 0001334  92.4551 267.6594 15.08838571119498,6917.885,95.438,540.673,538.827,0.0
49413.0,STARLINK-3157,PAYLOAD,2024-01-09 19:08:03,15.08842739,0.0001347,53.216,165.0929,87.4129,272.7017,0.00011181,1.492e-05,0.0,0 STARLINK-3157,1 49413U 21104F   24009.79726522  .00001492  00000-0  11181-3 0  9995,2 49413  53.2160 165.0929 0001347  87.4129 272.7017 15.08842739120611,6917.872,95.437,540.669,538.805,0.0
49413.0,STARLINK-3157,PAYLOAD,2024-01-09 20:43:26,15.08842586,0.0001347,53.216,164.7958,86.5715,273.5431,0.0001081,1.433e-05,0.0,0 STARLINK-3157,1 49413U 21104F   24009.86350541  .00001433  00000-0  10810-3 0  9990,2 49413  53.2160 164.7958 0001347  86.5715 273.5431 15.08842586119538,6917.872,95.437,540.669,538.806,0.0
49413.0,STARLINK-3157,PAYLOAD,2024-01-10 09:26:32,15.08836004,0.000158,53.2164,162.4168,91.6836,268.4337,2.2063e-05,6.3e-07,0.0,0 STARLINK-3157,1 49413U 21104F   24010.39343307  .00000063  00000-0  22063-4 0  9994,2 49413  53.2164 162.4168 0001580  91.6836 268.4337 15.08836004120707,6917.893,95.438,540.851,538.665,0.0
49413.0,STARLINK-3157,PAYLOAD,2024-01-10 18:58:51,15.08844148,0.0001404,53.2162,160.6327,83.3129,276.8023,1.3924e-05,-6.6e-07,0.0,0 STARLINK-3157,1 49413U 21104F   24010.79086839 -.00000066  00000-0  13924-4 0  9992,2 49413  53.2162 160.6327 0001404  83.3129 276.8023 15.08844148120769,6917.868,95.437,540.704,538.761,0.0
49413.0,STARLINK-3157,PAYLOAD,2024-01-11 14:03:28,15.08842168,0.0001345,53.2162,157.0641,94.7096,265.405,7.7394e-05,9.44e-06,0.0,0 STARLINK-3157,1 49413U 21104F   24011.58574815  .00000944  00000-0  77394-4 0  9991,2 49413  53.2162 157.0641 0001345  94.7096 265.4050 15.08842168119796,6917.874,95.437,540.669,538.808,0.0
49413.0,STARLINK-3157,PAYLOAD,2024-01-11 17:14:14,15.0884985,0.0001416,53.2165,156.4714,77.9506,282.1645,8.9881e-05,1.143e-05,0.0,0 STARLINK-3157,1 49413U 21104F   24011.71822429  .00001143  00000-0  89881-4 0  9999,2 49413  53.2165 156.4714 0001416  77.9506 282.1645 15.08849850119815,6917.85,95.437,540.695,538.736,0.0
49413.0,STARLINK-3157,PAYLOAD,2024-01-12 09:08:06,15.08834751,0.0001402,53.2162,153.4978,87.4091,272.7062,6.628e-05,7.67e-06,0.0,0 STARLINK-3157,1 49413U 21104F   24012.38063540  .00000767  00000-0  66280-4 0  9993,2 49413  53.2162 153.4978 0001402  87.4091 272.7062 15.08834751121007,6917.896,95.438,540.731,538.792,0.0
49413.0,STARLINK-3157,PAYLOAD,2024-01-12 13:54:16,15.08837267,0.0001342,53.2167,152.6053,85.3153,274.7992,5.2234e-05,5.43e-06,0.0,0 STARLINK-3157,1 49413U 21104F   24012.57935518  .00000543  00000-0  52234-4 0  9993,2 49413  53.2167 152.6053 0001342  85.3153 274.7992 15.08837267119945,6917.889,95.438,540.682,538.825,0.0
49413.0,STARLINK-3157,PAYLOAD,2024-01-12 15:29:39,15.08838017,0.0001386,53.2164,152.3079,82.4914,277.6236,5.9126e-05,6.53e-06,0.0,0 STARLINK-3157,1 49413U 21104F   24012.64559485  .00000653  00000-0  59126-4 0  9995,2 49413  53.2164 152.3079 0001386  82.4914 277.6236 15.08838017119956,6917.886,95.438,540.71,538.793,0.0
49413.0,STARLINK-3157,PAYLOAD,2024-01-13 12:09:40,15.08842336,0.0001415,53.2154,148.4434,95.7025,264.4129,0.00014956,2.093e-05,0.0,0 STARLINK-3157,1 49413U 21104F   24013.50671310  .00002093  00000-0  14956-3 0  9994,2 49413  53.2154 148.4434 0001415  95.7025 264.4129 15.08842336121170,6917.873,95.437,540.717,538.759,0.0
49413.0,STARLINK-3157,PAYLOAD,2024-01-13 13:45:02,15.08849546,0.0001439,53.216,148.1466,80.5134,279.6021,2.3752e-05,9e-07,0.0,0 STARLINK-3157,1 49413U 21104F   24013.57295058  .00000090  00000-0  23752-4 0  9992,2 49413  53.2160 148.1466 0001439  80.5134 279.6021 15.08849546120097,6917.851,95.437,540.712,538.721,0.0
49413.0,STARLINK-3157,PAYLOAD,2024-01-13 18:31:12,15.08853604,0.0001401,53.2152,147.2524,95.9788,264.1364,0.00022462,3.29e-05,0.0,0 STARLINK-3157,1 49413U 21104F   24013.77166738  .00003290  00000-0  22462-3 0  9997,2 49413  53.2152 147.2524 0001401  95.9788 264.1364 15.08853604121211,6917.839,95.437,540.673,538.735,0.0
49413.0,STARLINK-3157,PAYLOAD,2024-01-14 12:00:26,15.08844024,0.0001941,53.2147,143.9788,120.9085,239.2098,0.0001621,2.293e-05,0.0,0 STARLINK-3157,1 49413U 21104F   24014.50031129  .00002293  00000-0  16210-3 0  9990,2 49413  53.2147 143.9788 0001941 120.9085 239.2098 15.08844024121323,6917.868,95.437,541.076,538.39,0.0
49413.0,STARLINK-3157,PAYLOAD,2024-01-14 13:35:50,15.08844539,0.0001671,53.2157,143.6812,117.8433,242.2729,0.00017182,2.448e-05,0.0,0 STARLINK-3157,1 49413U 21104F   24014.56655128  .00002448  00000-0  17182-3 0  9998,2 49413  53.2157 143.6812 0001671 117.8433 242.2729 15.08844539120247,6917.867,95.437,540.887,538.576,0.0
49413.0,STARLINK-3157,PAYLOAD,2024-01-14 15:11:13,15.08844195,0.0001586,53.2164,143.3885,95.9015,264.2158,0.00020585,2.99e-05,0.0,0 STARLINK-3157,1 49413U 21104F   24014.63279347  .00002990  00000-0  20585-3 0  9994,2 49413  53.2164 143.3885 0001586  95.9015 264.2158 15.08844195120258,6917.868,95.437,540.83,538.635,0.0
49413.0,STARLINK-3157,PAYLOAD,2024-01-15 13:26:37,15.08844936,0.0001647,53.2165,139.2248,105.4455,254.6719,6.1182e-05,6.86e-06,0.0,0 STARLINK-3157,1 49413U 21104F   24015.56015116  .00000686  00000-0  61182-4 0  9998,2 49413  53.2165 139.2248 0001647 105.4455 254.6719 15.08844936120393,6917.865,95.437,540.87,538.591,0.0
49413.0,STARLINK-3157,PAYLOAD,2024-01-16 11:42:01,15.08831335,0.0001495,53.2158,135.0603,96.7326,263.3836,-8.027e-05,-1.565e-05,0.0,0 STARLINK-3157,1 49413U 21104F   24016.48752017 -.00001565  00000-0 -80270-4 0  9996,2 49413  53.2158 135.0603 0001495  96.7326 263.3836 15.08831335121627,6917.907,95.438,540.806,538.738,0.0
49413.0,STARLINK-3157,PAYLOAD,2024-01-16 13:17:25,15.08832223,0.0001467,53.2166,134.7629,97.5327,262.5832,-2.5608e-05,-6.95e-06,0.0,0 STARLINK-3157,1 49413U 21104F   24016.55376379 -.00000695  00000-0 -25608-4 0  9994,2 49413  53.2166 134.7629 0001467  97.5327 262.5832 15.08832223120543,6917.904,95.438,540.784,538.754,0.0
49413.0,STARLINK-3157,PAYLOAD,2024-01-16 18:03:34,15.08834581,0.0001486,53.2163,133.8699,100.2269,259.889,-9.0716e-06,-4.32e-06,0.0,0 STARLINK-3157,1 49413U 21104F   24016.75248217 -.00000432  00000-0 -90716-5 0  9997,2 49413  53.2163 133.8699 0001486 100.2269 259.8890 15.08834581120570,6917.897,95.438,540.79,538.734,0.0
49413.0,STARLINK-3157,PAYLOAD,2024-01-17 14:43:34,15.08842631,0.0001793,53.217,130.0041,110.1287,249.9898,9.7719e-05,1.268e-05,0.0,0 STARLINK-3157,1 49413U 21104F   24017.61359759  .00001268  00000-0  97719-4 0  9992,2 49413  53.2170 130.0041 0001793 110.1287 249.9898 15.08842631120707,6917.872,95.437,540.978,538.497,0.0
49413.0,STARLINK-3157,PAYLOAD,2024-01-18 11:23:36,15.08836144,0.0001382,53.2159,126.1386,92.4577,267.6573,0.00012274,1.666e-05,0.0,0 STARLINK-3157,1 49413U 21104F   24018.47472356  .00001666  00000-0  12274-3 0  9990,2 49413  53.2159 126.1386 0001382  92.4577 267.6573 15.08836144121924,6917.892,95.438,540.713,538.801,0.0
49413.0,STARLINK-3157,PAYLOAD,2024-01-18 14:34:21,15.08843568,0.0001594,53.2161,125.5442,73.3154,286.8013,0.00018368,2.637e-05,0.0,0 STARLINK-3157,1 49413U 21104F   24018.60719784  .00002637  00000-0  18368-3 0  9993,2 49413  53.2161 125.5442 0001594  73.3154 286.8013 15.08843568120858,6917.869,95.437,540.837,538.632,0.0
49413.0,STARLINK-3157,PAYLOAD,2024-01-19 11:14:22,15.08845831,0.0001737,53.2174,121.6773,70.4373,289.6806,4.9026e-05,4.92e-06,0.0,0 STARLINK-3157,1 49413U 21104F   24019.46832062  .00000492  00000-0  49026-4 0  9996,2 49413  53.2174 121.6773 0001737  70.4373 289.6806 15.08845831122078,6917.863,95.437,540.929,538.526,0.0
